GOES 14                 
1 35491U 09033A   26116.88933730 -.00000059  00000+0  00000+0 0  9997
2 35491   1.5596  83.6273 0001750 314.0551 307.8984  1.00116667  6071
EWS-G2 (GOES 15)        
1 36411U 10008A   26116.96145524  .00000012  00000+0  00000+0 0  9997
2 36411   1.1428  83.7723 0003983  23.7429 156.8227  1.00272523 59123
GOES 16                 
1 41866U 16071A   26116.90108081 -.00000102  00000+0  00000+0 0  9995
2 41866   0.2130  85.2891 0001499 251.0284  98.2535  1.00271206 34582
GOES 17                 
1 43226U 18022A   26116.90411416 -.00000193  00000+0  00000+0 0  9994
2 43226   0.8081  86.3988 0000667 276.3071  88.1847  1.00271991 29910
GOES 18                 
1 51850U 22021A   26116.75209696  .00000085  00000+0  00000+0 0  9997
2 51850   0.0454  68.8293 0000512  19.4350 260.2358  1.00272846  6079
GOES 19                 
1 60133U 24119A   26116.90688750 -.00000260  00000+0  00000+0 0  9996
2 60133   0.0266  67.9640 0000641  17.4109  20.8049  1.00273156  6457
